OBJECT_NAME,OBJECT_ID,EPOCH,MEAN_MOTION,ECCENTRICITY,INCLINATION,RA_OF_ASC_NODE,ARG_OF_PERICENTER,MEAN_ANOMALY,EPHEMERIS_TYPE,CLASSIFICATION_TYPE,NORAD_CAT_ID,ELEMENT_SET_NO,REV_AT_EPOCH,BSTAR,MEAN_MOTION_DOT,MEAN_MOTION_DDOT
TIANMU-1 20,2023-208B,2026-06-10T14:24:23.061024,15.32665108,.00065835,97.4434,278.4958,359.6885,0.4351,0,U,58661,999,13641,.23353615E-3,.7291E-4,0
TIANMU-1 21,2023-208C,2026-06-10T14:21:49.365792,15.34959686,.00064593,97.4492,281.1463,351.1622,8.9506,0,U,58662,999,13655,.25712898E-3,.8643E-4,0
TIANMU-1 22,2023-208D,2026-06-10T14:27:15.439392,15.30965363,.0003842,97.4488,277.8109,27.2714,332.8728,0,U,58663,999,13632,.23361296E-3,.6912E-4,0
TIANMU-1 15,2024-004A,2026-06-10T14:40:02.044128,15.26955512,.00073693,97.4672,347.8011,24.8558,335.3034,0,U,58700,999,13477,.19438502E-3,.5072E-4,0
TIANMU-1 16,2024-004B,2026-06-10T14:22:49.713600,15.26680691,.00064865,97.4618,347.0334,29.8171,330.3436,0,U,58701,999,13477,.19918532E-3,.5155E-4,0
TIANMU-1 17,2024-004C,2026-06-10T14:01:52.598784,15.26680228,.00061487,97.4645,347.5014,35.6126,324.5522,0,U,58702,999,13476,.19593603E-3,.507E-4,0
TIANMU-1 18,2024-004D,2026-06-10T15:03:50.877216,15.26939114,.00046506,97.4663,347.7957,35.3041,324.8505,0,U,58703,999,13477,.18530981E-3,.4828E-4,0
INSAT-3DS,2024-033A,2026-06-10T14:55:48.779904,1.00272493,.00011419,0.0309,118.5660,315.5000,130.9587,0,U,58990,999,4700,0,-.139E-5,0
METEOR-M2 4,2024-039A,2026-06-10T15:23:56.139072,14.22428895,.00068968,98.7008,121.0220,179.6081,180.5103,0,U,59051,999,11833,.20439367E-4,.2E-7,0
GOES 19,2024-119A,2026-06-10T12:56:04.034976,1.00271338,.00004439,0.0423,133.9120,23.6253,220.1942,0,U,60133,999,689,0,-.231E-5,0
MTG-S1,2025-143A,2026-06-10T08:08:28.702176,1.00271596,.00009884,0.6094,337.3675,22.8175,17.1593,0,U,64723,999,335,0,-.15E-6,0
METOP-SGA1,2025-172A,2026-06-10T14:13:30.451584,14.21508740,.00009461,98.6645,221.4407,88.9519,271.1767,0,U,65159,999,4285,.34266391E-4,.32E-6,0
FENGYUN 3H,2025-219A,2026-06-10T13:23:45.205440,14.19919363,.00016228,98.6766,102.4562,81.9140,278.2221,0,U,65815,999,3644,.3870927E-4,.39E-6,0
