TIANMU-1 20             
1 58661U 23208B   26161.60026691  .00007291  00000+0  23354-3 0  9995
2 58661  97.4434 278.4958 0006583 359.6885   0.4351 15.32665108136413
TIANMU-1 21             
1 58662U 23208C   26161.59848803  .00008643  00000+0  25713-3 0  9994
2 58662  97.4492 281.1463 0006459 351.1622   8.9506 15.34959686136557
TIANMU-1 22             
1 58663U 23208D   26161.60226203  .00006912  00000+0  23361-3 0  9995
2 58663  97.4488 277.8109 0003842  27.2714 332.8728 15.30965363136323
TIANMU-1 15             
1 58700U 24004A   26161.61113477  .00005072  00000+0  19439-3 0  9998
2 58700  97.4672 347.8011 0007369  24.8558 335.3034 15.26955512134772
TIANMU-1 16             
1 58701U 24004B   26161.59918650  .00005155  00000+0  19919-3 0  9997
2 58701  97.4618 347.0334 0006486  29.8171 330.3436 15.26680691134772
TIANMU-1 17             
1 58702U 24004C   26161.58463656  .00005070  00000+0  19594-3 0  9993
2 58702  97.4645 347.5014 0006148  35.6126 324.5522 15.26680228134769
TIANMU-1 18             
1 58703U 24004D   26161.62767219  .00004828  00000+0  18531-3 0  9991
2 58703  97.4663 347.7957 0004650  35.3041 324.8505 15.26939114134773
INSAT-3DS               
1 58990U 24033A   26161.62209236 -.00000139  00000+0  00000+0 0  9991
2 58990   0.0309 118.5660 0001141 315.5000 130.9587  1.00272493 47005
METEOR-M2 4             
1 59051U 24039A   26161.64162198  .00000002  00000+0  20439-4 0  9994
2 59051  98.7008 121.0220 0006896 179.6081 180.5103 14.22428895118332
GOES 19                 
1 60133U 24119A   26161.53893559 -.00000231  00000+0  00000+0 0  9998
2 60133   0.0423 133.9120 0000443  23.6253 220.1942  1.00271338  6893
MTG-S1                  
1 64723U 25143A   26161.33922109 -.00000015  00000+0  00000+0 0  9997
2 64723   0.6094 337.3675 0000988  22.8175  17.1593  1.00271596  3355
METOP-SGA1              
1 65159U 25172A   26161.59271356  .00000032  00000+0  34266-4 0  9996
2 65159  98.6645 221.4407 0000946  88.9519 271.1767 14.21508740 42857
FENGYUN 3H              
1 65815U 25219A   26161.55816210  .00000039  00000+0  38709-4 0  9990
2 65815  98.6766 102.4562 0001622  81.9140 278.2221 14.19919363 36440
